{
  "type": "FeatureCollection",
  "features": [
    {
      "type": "Feature",
      "properties": {
        "norad_id": 67040,
        "name": "STARLINK-35786",
        "group": "last-30-days",
        "lat": -36.02819359163505,
        "lon": 86.82976481558713,
        "alt_km": 304.9059598506565,
        "timestamp": "2025-12-19T22:41:51.099702+00:00",
        "meta_object_name": "STARLINK-35786",
        "meta_object_id": "2025-294L",
        "meta_epoch": "2025-12-19T18:00:00.998784",
        "meta_mean_motion": 15.90385701,
        "meta_eccentricity": 0.0001515,
        "meta_inclination": 42.9997,
        "meta_ra_of_asc_node": 139.3517,
        "meta_arg_of_pericenter": 270.804,
        "meta_mean_anomaly": 347.8637,
        "meta_ephemeris_type": 0,
        "meta_classification_type": "U",
        "meta_norad_cat_id": 67040,
        "meta_element_set_no": 999,
        "meta_rev_at_epoch": 130,
        "meta_bstar": -0.0049798,
        "meta_mean_motion_dot": -0.01384661,
        "meta_mean_motion_ddot": 0,
        "tle_line1": "1 67040U 25294L   25353.75001156 -.01384661  00000+0 -49798-2 0  9991",
        "tle_line2": "2 67040  42.9997 139.3517 0001515 270.8040 347.8637 15.90385701  1302"
      },
      "geometry": {
        "type": "Point",
        "coordinates": [
          86.82976481558713,
          -36.02819359163505
        ]
      }
    },
    {
      "type": "Feature",
      "properties": {
        "norad_id": 67041,
        "name": "STARLINK-35765",
        "group": "last-30-days",
        "lat": -34.357679187790424,
        "lon": 90.93379604297593,
        "alt_km": 304.6383278637759,
        "timestamp": "2025-12-19T22:41:51.099712+00:00",
        "meta_object_name": "STARLINK-35765",
        "meta_object_id": "2025-294M",
        "meta_epoch": "2025-12-19T18:00:00.998784",
        "meta_mean_motion": 15.90479709,
        "meta_eccentricity": 0.0001511,
        "meta_inclination": 42.9995,
        "meta_ra_of_asc_node": 139.3423,
        "meta_arg_of_pericenter": 267.8386,
        "meta_mean_anomaly": 354.5207,
        "meta_ephemeris_type": 0,
        "meta_classification_type": "U",
        "meta_norad_cat_id": 67041,
        "meta_element_set_no": 999,
        "meta_rev_at_epoch": 130,
        "meta_bstar": -0.0049919,
        "meta_mean_motion_dot": -0.01393504,
        "meta_mean_motion_ddot": 0,
        "tle_line1": "1 67041U 25294M   25353.75001156 -.01393504  00000+0 -49919-2 0  9993",
        "tle_line2": "2 67041  42.9995 139.3423 0001511 267.8386 354.5207 15.90479709  1302"
      },
      "geometry": {
        "type": "Point",
        "coordinates": [
          90.93379604297593,
          -34.357679187790424
        ]
      }
    },
    {
      "type": "Feature",
      "properties": {
        "norad_id": 67042,
        "name": "STARLINK-35773",
        "group": "last-30-days",
        "lat": -33.390908244482624,
        "lon": 93.10010458212139,
        "alt_km": 304.4181801149307,
        "timestamp": "2025-12-19T22:41:51.099724+00:00",
        "meta_object_name": "STARLINK-35773",
        "meta_object_id": "2025-294N",
        "meta_epoch": "2025-12-19T18:00:00.998784",
        "meta_mean_motion": 15.90525772,
        "meta_eccentricity": 0.0001523,
        "meta_inclination": 42.9996,
        "meta_ra_of_asc_node": 139.3373,
        "meta_arg_of_pericenter": 273.3155,
        "meta_mean_anomaly": 351.0618,
        "meta_ephemeris_type": 0,
        "meta_classification_type": "U",
        "meta_norad_cat_id": 67042,
        "meta_element_set_no": 999,
        "meta_rev_at_epoch": 143,
        "meta_bstar": -0.0050106,
        "meta_mean_motion_dot": -0.01401001,
        "meta_mean_motion_ddot": 0,
        "tle_line1": "1 67042U 25294N   25353.75001156 -.01401001  00000+0 -50106-2 0  9996",
        "tle_line2": "2 67042  42.9996 139.3373 0001523 273.3155 351.0618 15.90525772  1431"
      },
      "geometry": {
        "type": "Point",
        "coordinates": [
          93.10010458212139,
          -33.390908244482624
        ]
      }
    },
    {
      "type": "Feature",
      "properties": {
        "norad_id": 67043,
        "name": "STARLINK-35901",
        "group": "last-30-days",
        "lat": -32.398282465446876,
        "lon": 95.1948013400653,
        "alt_km": 304.29995983152094,
        "timestamp": "2025-12-19T22:41:51.099734+00:00",
        "meta_object_name": "STARLINK-35901",
        "meta_object_id": "2025-294P",
        "meta_epoch": "2025-12-19T18:00:00.998784",
        "meta_mean_motion": 15.90575058,
        "meta_eccentricity": 0.0001572,
        "meta_inclination": 42.9996,
        "meta_ra_of_asc_node": 139.3324,
        "meta_arg_of_pericenter": 267.2717,
        "meta_mean_anomaly": 359.0947,
        "meta_ephemeris_type": 0,
        "meta_classification_type": "U",
        "meta_norad_cat_id": 67043,
        "meta_element_set_no": 999,
        "meta_rev_at_epoch": 143,
        "meta_bstar": -0.0050184,
        "meta_mean_motion_dot": -0.01406076,
        "meta_mean_motion_ddot": 0,
        "tle_line1": "1 67043U 25294P   25353.75001156 -.01406076  00000+0 -50184-2 0  9990",
        "tle_line2": "2 67043  42.9996 139.3324 0001572 267.2717 359.0947 15.90575058  1433"
      },
      "geometry": {
        "type": "Point",
        "coordinates": [
          95.1948013400653,
          -32.398282465446876
        ]
      }
    },
    {
      "type": "Feature",
      "properties": {
        "norad_id": 67044,
        "name": "STARLINK-35884",
        "group": "last-30-days",
        "lat": -31.411194238669115,
        "lon": 97.1661889197749,
        "alt_km": 304.129454353244,
        "timestamp": "2025-12-19T22:41:51.099747+00:00",
        "meta_object_name": "STARLINK-35884",
        "meta_object_id": "2025-294Q",
        "meta_epoch": "2025-12-19T18:00:00.998784",
        "meta_mean_motion": 15.90622664,
        "meta_eccentricity": 0.0001515,
        "meta_inclination": 42.9998,
        "meta_ra_of_asc_node": 139.3274,
        "meta_arg_of_pericenter": 270.5742,
        "meta_mean_anomaly": 357.7099,
        "meta_ephemeris_type": 0,
        "meta_classification_type": "U",
        "meta_norad_cat_id": 67044,
        "meta_element_set_no": 999,
        "meta_rev_at_epoch": 143,
        "meta_bstar": -0.005041,
        "meta_mean_motion_dot": -0.01414595,
        "meta_mean_motion_ddot": 0,
        "tle_line1": "1 67044U 25294Q   25353.75001156 -.01414595  00000+0 -50410-2 0  9998",
        "tle_line2": "2 67044  42.9998 139.3274 0001515 270.5742 357.7099 15.90622664  1431"
      },
      "geometry": {
        "type": "Point",
        "coordinates": [
          97.1661889197749,
          -31.411194238669115
        ]
      }
    },
    {
      "type": "Feature",
      "properties": {
        "norad_id": 67045,
        "name": "STARLINK-35891",
        "group": "last-30-days",
        "lat": -30.154202827781976,
        "lon": 99.537645147712,
        "alt_km": 303.9500482908579,
        "timestamp": "2025-12-19T22:41:51.099757+00:00",
        "meta_object_name": "STARLINK-35891",
        "meta_object_id": "2025-294R",
        "meta_epoch": "2025-12-19T18:00:00.998784",
        "meta_mean_motion": 15.90673511,
        "meta_eccentricity": 0.000152,
        "meta_inclination": 42.9997,
        "meta_ra_of_asc_node": 139.3213,
        "meta_arg_of_pericenter": 270.5275,
        "meta_mean_anomaly": 0.1229,
        "meta_ephemeris_type": 0,
        "meta_classification_type": "U",
        "meta_norad_cat_id": 67045,
        "meta_element_set_no": 999,
        "meta_rev_at_epoch": 135,
        "meta_bstar": -0.0050691,
        "meta_mean_motion_dot": -0.01424734,
        "meta_mean_motion_ddot": 0,
        "tle_line1": "1 67045U 25294R   25353.75001156 -.01424734  00000+0 -50691-2 0  9996",
        "tle_line2": "2 67045  42.9997 139.3213 0001520 270.5275   0.1229 15.90673511  1353"
      },
      "geometry": {
        "type": "Point",
        "coordinates": [
          99.537645147712,
          -30.154202827781976
        ]
      }
    },
    {
      "type": "Feature",
      "properties": {
        "norad_id": 67046,
        "name": "STARLINK-35721",
        "group": "last-30-days",
        "lat": -29.00237343283213,
        "lon": 101.5939790608689,
        "alt_km": 303.7621762919489,
        "timestamp": "2025-12-19T22:41:51.099767+00:00",
        "meta_object_name": "STARLINK-35721",
        "meta_object_id": "2025-294S",
        "meta_epoch": "2025-12-19T18:00:00.998784",
        "meta_mean_motion": 15.90720911,
        "meta_eccentricity": 0.0001531,
        "meta_inclination": 42.9999,
        "meta_ra_of_asc_node": 139.3161,
        "meta_arg_of_pericenter": 271.2961,
        "meta_mean_anomaly": 1.4548,
        "meta_ephemeris_type": 0,
        "meta_classification_type": "U",
        "meta_norad_cat_id": 67046,
        "meta_element_set_no": 999,
        "meta_rev_at_epoch": 143,
        "meta_bstar": -0.0050809,
        "meta_mean_motion_dot": -0.01430704,
        "meta_mean_motion_ddot": 0,
        "tle_line1": "1 67046U 25294S   25353.75001156 -.01430704  00000+0 -50809-2 0  9992",
        "tle_line2": "2 67046  42.9999 139.3161 0001531 271.2961   1.4548 15.90720911  1434"
      },
      "geometry": {
        "type": "Point",
        "coordinates": [
          101.5939790608689,
          -29.00237343283213
        ]
      }
    }
  ]
}